{
  "type": "FeatureCollection",
  "features": [
    {
      "type": "Feature",
      "properties": {
        "norad_id": 38833,
        "name": "GPS BIIF-3  (PRN 24)",
        "group": "gps-ops",
        "lat": 39.63954524608868,
        "lon": -170.57967830161266,
        "alt_km": 19719.858670009857,
        "timestamp": "2025-12-02T10:50:47.532737+00:00",
        "meta_object_name": "GPS BIIF-3  (PRN 24)",
        "meta_object_id": "2012-053A",
        "meta_epoch": "2025-12-01T21:10:58.228032",
        "meta_mean_motion": 2.00564835,
        "meta_eccentricity": 0.0175482,
        "meta_inclination": 53.5559,
        "meta_ra_of_asc_node": 151.6834,
        "meta_arg_of_pericenter": 63.8436,
        "meta_mean_anomaly": 297.9871,
        "meta_ephemeris_type": 0,
        "meta_classification_type": "U",
        "meta_norad_cat_id": 38833,
        "meta_element_set_no": 999,
        "meta_rev_at_epoch": 9548,
        "meta_bstar": 0,
        "meta_mean_motion_dot": 1.16e-06,
        "meta_mean_motion_ddot": 0,
        "tle_line1": "1 38833U 12053A   25335.88261838  .00000116  00000+0  00000+0 0  9994",
        "tle_line2": "2 38833  53.5559 151.6834 0175482  63.8436 297.9871  2.00564835 95486"
      },
      "geometry": {
        "type": "Point",
        "coordinates": [
          -170.57967830161266,
          39.63954524608868
        ]
      }
    },
    {
      "type": "Feature",
      "properties": {
        "norad_id": 39166,
        "name": "GPS BIIF-4  (PRN 27)",
        "group": "gps-ops",
        "lat": 22.42229009179749,
        "lon": 79.96224555872374,
        "alt_km": 20260.068661974747,
        "timestamp": "2025-12-02T10:50:47.532749+00:00",
        "meta_object_name": "GPS BIIF-4  (PRN 27)",
        "meta_object_id": "2013-023A",
        "meta_epoch": "2025-12-01T05:56:59.182080",
        "meta_mean_motion": 2.00565069,
        "meta_eccentricity": 0.0137184,
        "meta_inclination": 54.6621,
        "meta_ra_of_asc_node": 277.0355,
        "meta_arg_of_pericenter": 48.4883,
        "meta_mean_anomaly": 312.6776,
        "meta_ephemeris_type": 0,
        "meta_classification_type": "U",
        "meta_norad_cat_id": 39166,
        "meta_element_set_no": 999,
        "meta_rev_at_epoch": 9191,
        "meta_bstar": 0,
        "meta_mean_motion_dot": -4e-07,
        "meta_mean_motion_ddot": 0,
        "tle_line1": "1 39166U 13023A   25335.24790720 -.00000040  00000+0  00000+0 0  9996",
        "tle_line2": "2 39166  54.6621 277.0355 0137184  48.4883 312.6776  2.00565069 91914"
      },
      "geometry": {
        "type": "Point",
        "coordinates": [
          79.96224555872374,
          22.42229009179749
        ]
      }
    },
    {
      "type": "Feature",
      "properties": {
        "norad_id": 39533,
        "name": "GPS BIIF-5  (PRN 30)",
        "group": "gps-ops",
        "lat": 22.35471144829787,
        "lon": -40.31038769297329,
        "alt_km": 20121.562813854696,
        "timestamp": "2025-12-02T10:50:47.532760+00:00",
        "meta_object_name": "GPS BIIF-5  (PRN 30)",
        "meta_object_id": "2014-008A",
        "meta_epoch": "2025-12-01T17:47:12.743808",
        "meta_mean_motion": 2.00573724,
        "meta_eccentricity": 0.0078939,
        "meta_inclination": 53.6295,
        "meta_ra_of_asc_node": 157.3734,
        "meta_arg_of_pericenter": 226.3523,
        "meta_mean_anomaly": 133.0365,
        "meta_ephemeris_type": 0,
        "meta_classification_type": "U",
        "meta_norad_cat_id": 39533,
        "meta_element_set_no": 999,
        "meta_rev_at_epoch": 8572,
        "meta_bstar": 0,
        "meta_mean_motion_dot": 1.22e-06,
        "meta_mean_motion_ddot": 0,
        "tle_line1": "1 39533U 14008A   25335.74111972  .00000122  00000+0  00000+0 0  9999",
        "tle_line2": "2 39533  53.6295 157.3734 0078939 226.3523 133.0365  2.00573724 85727"
      },
      "geometry": {
        "type": "Point",
        "coordinates": [
          -40.31038769297329,
          22.35471144829787
        ]
      }
    },
    {
      "type": "Feature",
      "properties": {
        "norad_id": 39741,
        "name": "GPS BIIF-6  (PRN 06)",
        "group": "gps-ops",
        "lat": -40.449380467488496,
        "lon": -55.073297076322625,
        "alt_km": 20085.29697026727,
        "timestamp": "2025-12-02T10:50:47.532810+00:00",
        "meta_object_name": "GPS BIIF-6  (PRN 06)",
        "meta_object_id": "2014-026A",
        "meta_epoch": "2025-12-02T00:33:52.471008",
        "meta_mean_motion": 2.00561967,
        "meta_eccentricity": 0.0038874,
        "meta_inclination": 56.5877,
        "meta_ra_of_asc_node": 339.1935,
        "meta_arg_of_pericenter": 318.1074,
        "meta_mean_anomaly": 41.6257,
        "meta_ephemeris_type": 0,
        "meta_classification_type": "U",
        "meta_norad_cat_id": 39741,
        "meta_element_set_no": 999,
        "meta_rev_at_epoch": 8458,
        "meta_bstar": 0,
        "meta_mean_motion_dot": -5.7e-07,
        "meta_mean_motion_ddot": 0,
        "tle_line1": "1 39741U 14026A   25336.02352397 -.00000057  00000+0  00000+0 0  9998",
        "tle_line2": "2 39741  56.5877 339.1935 0038874 318.1074  41.6257  2.00561967 84587"
      },
      "geometry": {
        "type": "Point",
        "coordinates": [
          -55.073297076322625,
          -40.449380467488496
        ]
      }
    },
    {
      "type": "Feature",
      "properties": {
        "norad_id": 40105,
        "name": "GPS BIIF-7  (PRN 09)",
        "group": "gps-ops",
        "lat": -48.80694144870958,
        "lon": -31.207623774339236,
        "alt_km": 20239.036283506426,
        "timestamp": "2025-12-02T10:50:47.532832+00:00",
        "meta_object_name": "GPS BIIF-7  (PRN 09)",
        "meta_object_id": "2014-045A",
        "meta_epoch": "2025-12-01T02:44:59.047584",
        "meta_mean_motion": 2.00571745,
        "meta_eccentricity": 0.0032948,
        "meta_inclination": 55.2216,
        "meta_ra_of_asc_node": 96.3629,
        "meta_arg_of_pericenter": 119.5842,
        "meta_mean_anomaly": 240.7262,
        "meta_ephemeris_type": 0,
        "meta_classification_type": "U",
        "meta_norad_cat_id": 40105,
        "meta_element_set_no": 999,
        "meta_rev_at_epoch": 8210,
        "meta_bstar": 0,
        "meta_mean_motion_dot": 1.8e-07,
        "meta_mean_motion_ddot": 0,
        "tle_line1": "1 40105U 14045A   25335.11457231  .00000018  00000+0  00000+0 0  9993",
        "tle_line2": "2 40105  55.2216  96.3629 0032948 119.5842 240.7262  2.00571745 82109"
      },
      "geometry": {
        "type": "Point",
        "coordinates": [
          -31.207623774339236,
          -48.80694144870958
        ]
      }
    },
    {
      "type": "Feature",
      "properties": {
        "norad_id": 40294,
        "name": "GPS BIIF-8  (PRN 03)",
        "group": "gps-ops",
        "lat": -21.377144916570053,
        "lon": 23.754210027221603,
        "alt_km": 20198.593304803893,
        "timestamp": "2025-12-02T10:50:47.532849+00:00",
        "meta_object_name": "GPS BIIF-8  (PRN 03)",
        "meta_object_id": "2014-068A",
        "meta_epoch": "2025-12-01T11:46:15.009600",
        "meta_mean_motion": 2.00563998,
        "meta_eccentricity": 0.0060828,
        "meta_inclination": 56.849,
        "meta_ra_of_asc_node": 38.5813,
        "meta_arg_of_pericenter": 69.4379,
        "meta_mean_anomaly": 291.2622,
        "meta_ephemeris_type": 0,
        "meta_classification_type": "U",
        "meta_norad_cat_id": 40294,
        "meta_element_set_no": 999,
        "meta_rev_at_epoch": 8124,
        "meta_bstar": 0,
        "meta_mean_motion_dot": -6.4e-07,
        "meta_mean_motion_ddot": 0,
        "tle_line1": "1 40294U 14068A   25335.49045150 -.00000064  00000+0  00000+0 0  9993",
        "tle_line2": "2 40294  56.8490  38.5813 0060828  69.4379 291.2622  2.00563998 81244"
      },
      "geometry": {
        "type": "Point",
        "coordinates": [
          23.754210027221603,
          -21.377144916570053
        ]
      }
    },
    {
      "type": "Feature",
      "properties": {
        "norad_id": 40534,
        "name": "GPS BIIF-9  (PRN 26)",
        "group": "gps-ops",
        "lat": -44.25591514548777,
        "lon": 79.10340186236074,
        "alt_km": 20448.932200322168,
        "timestamp": "2025-12-02T10:50:47.532861+00:00",
        "meta_object_name": "GPS BIIF-9  (PRN 26)",
        "meta_object_id": "2015-013A",
        "meta_epoch": "2025-12-01T02:55:38.238240",
        "meta_mean_motion": 2.00563184,
        "meta_eccentricity": 0.01065399,
        "meta_inclination": 53.1998,
        "meta_ra_of_asc_node": 212.3715,
        "meta_arg_of_pericenter": 38.192,
        "meta_mean_anomaly": 322.6465,
        "meta_ephemeris_type": 0,
        "meta_classification_type": "U",
        "meta_norad_cat_id": 40534,
        "meta_element_set_no": 999,
        "meta_rev_at_epoch": 7785,
        "meta_bstar": 0,
        "meta_mean_motion_dot": 6.6e-07,
        "meta_mean_motion_ddot": 0,
        "tle_line1": "1 40534U 15013A   25335.12197035  .00000066  00000+0  00000+0 0  9992",
        "tle_line2": "2 40534  53.1998 212.3715 0106539  38.1920 322.6465  2.00563184 77855"
      },
      "geometry": {
        "type": "Point",
        "coordinates": [
          79.10340186236074,
          -44.25591514548777
        ]
      }
    }
  ]
}